ONEWEB-0102             
1 47258U 20100A   25116.87987996  .00000314  00000+0  83658-3 0  9997
2 47258  87.8861  73.5079 0001864  82.8831 277.2510 13.12441901210122
ONEWEB-0109             
1 47259U 20100B   25116.43053146 -.00000183  00000+0 -54382-3 0  9999
2 47259  87.8857  73.5664 0001849  84.1866 275.9473 13.12444073209892
ONEWEB-0110             
1 47260U 20100C   25116.15154251 -.00000158  00000+0 -47452-3 0  9991
2 47260  87.8854  73.6092 0001858  81.6744 278.4595 13.12445529210021
ONEWEB-0111             
1 47261U 20100D   25116.86850209  .00000406  00000+0  10937-2 0  9997
2 47261  87.8859  73.4784 0001942  84.5366 275.5984 13.12441387209957
ONEWEB-0114             
1 47262U 20100E   25116.36566555 -.00000383  00000+0 -11003-2 0  9992
2 47262  87.8852  73.5806 0001857  93.3735 266.7606 13.12443833209849
ONEWEB-0117             
1 47263U 20100F   25116.43377900 -.00000282  00000+0 -81807-3 0  9993
2 47263  87.8855  73.5566 0001935  82.9075 277.2273 13.12440398209866
ONEWEB-0118             
1 47264U 20100G   25116.16127247 -.00000137  00000+0 -41614-3 0  9992
2 47264  87.8856  73.6121 0002143  91.6543 268.4831 13.12443292210023
ONEWEB-0119             
1 47265U 20100H   25116.87498632  .00000378  00000+0  10149-2 0  9993
2 47265  87.8858  73.5088 0001906  82.2433 277.8912 13.12444215210094
